{
  "norad_id": 68400,
  "name": "STARLINK-36235",
  "history": [
    {
      "epoch": "2026-04-02T18:00:01.999296Z",
      "apogee_km": 273.5801454139282,
      "perigee_km": 271.53705172604805,
      "latitude_deg": -9.224832503945276,
      "longitude_deg": -48.7261925401779,
      "height_km": 277.74027000650176,
      "semi_major_axis_km": 6650.695598569988,
      "eccentricity": 0.0001536,
      "inclination_deg": 97.281,
      "raan_deg": 233.5586,
      "arg_perigee_deg": 80.5141,
      "mean_anomaly_deg": 108.5827,
      "mean_motion_rev_day": 16.00671292
    },
    {
      "epoch": "2026-04-02T18:00:02.000160Z",
      "apogee_km": 273.5802119208838,
      "perigee_km": 271.53698521909155,
      "latitude_deg": -9.224833587045973,
      "longitude_deg": -48.72619629131746,
      "height_km": 277.7402914703575,
      "semi_major_axis_km": 6650.695598569988,
      "eccentricity": 0.00015361,
      "inclination_deg": 97.281,
      "raan_deg": 233.5586,
      "arg_perigee_deg": 80.5141,
      "mean_anomaly_deg": 108.5827,
      "mean_motion_rev_day": 16.00671292
    }
  ]
}